{
    "links": {
        "self": "http://www.neowsapp.com/rest/v1/neo/3655564?api_key=iIulBulltgU6a56xZRHN4H3l9WmuAYTsLGpBGhQ2"
    },
    "id": "3655564",
    "neo_reference_id": "3655564",
    "name": "(2013 YL70)",
    "designation": "2013 YL70",
    "nasa_jpl_url": "http://ssd.jpl.nasa.gov/sbdb.cgi?sstr=3655564",
    "absolute_magnitude_h": 20.9,
    "estimated_diameter": {
        "kilometers": {
            "estimated_diameter_min": 0.1756123185,
            "estimated_diameter_max": 0.3926810818
        },
        "meters": {
            "estimated_diameter_min": 175.6123184804,
            "estimated_diameter_max": 392.6810818086
        },
        "miles": {
            "estimated_diameter_min": 0.1091204019,
            "estimated_diameter_max": 0.2440006365
        },
        "feet": {
            "estimated_diameter_min": 576.1559189633,
            "estimated_diameter_max": 1288.3238004408
        }
    },
    "is_potentially_hazardous_asteroid": false,
    "close_approach_data": [
        {
            "close_approach_date": "2014-01-11",
            "close_approach_date_full": "2014-Jan-11 14:32",
            "epoch_date_close_approach": 1389450720000,
            "relative_velocity": {
                "kilometers_per_second": "20.5742910742",
                "kilometers_per_hour": "74067.4478670689",
                "miles_per_hour": "46022.6317038462"
            },
            "miss_distance": {
                "astronomical": "0.1399773358",
                "lunar": "54.4511836262",
                "kilometers": "20940311.283954746",
                "miles": "13011706.0710216548"
            },
            "orbiting_body": "Earth"
        },
        {
            "close_approach_date": "2050-09-03",
            "close_approach_date_full": "2050-Sep-03 11:02",
            "epoch_date_close_approach": 2545815720000,
            "relative_velocity": {
                "kilometers_per_second": "28.7235777596",
                "kilometers_per_hour": "103404.8799345287",
                "miles_per_hour": "64251.7710904298"
            },
            "miss_distance": {
                "astronomical": "0.219478018",
                "lunar": "85.376949002",
                "kilometers": "32833444.00462166",
                "miles": "20401756.062472508"
            },
            "orbiting_body": "Earth"
        },
        {
            "close_approach_date": "2098-09-18",
            "close_approach_date_full": "2098-Sep-18 11:19",
            "epoch_date_close_approach": 4061877540000,
            "relative_velocity": {
                "kilometers_per_second": "38.0706528196",
                "kilometers_per_hour": "137054.3501507004",
                "miles_per_hour": "85160.2432922505"
            },
            "miss_distance": {
                "astronomical": "0.4992078861",
                "lunar": "194.1918676929",
                "kilometers": "74680436.447762607",
                "miles": "46404271.4139816966"
            },
            "orbiting_body": "Earth"
        }
    ],
    "orbital_data": {
        "orbit_id": "10",
        "orbit_determination_date": "2017-04-06 08:43:05",
        "first_observation_date": "2013-12-30",
        "last_observation_date": "2014-01-09",
        "data_arc_in_days": 10,
        "observations_used": 68,
        "orbit_uncertainty": "9",
        "minimum_orbit_intersection": ".0975587",
        "jupiter_tisserand_invariant": "4.762",
        "epoch_osculation": "2456660.5",
        "eccentricity": ".6723173442278478",
        "semi_major_axis": "1.284249555298918",
        "inclination": "15.17168621190295",
        "ascending_node_longitude": "126.9262857663136",
        "orbital_period": "531.5848104592643",
        "perihelion_distance": ".420826304954555",
        "perihelion_argument": "91.44179223445492",
        "aphelion_distance": "2.147672805643282",
        "perihelion_time": "2456717.200275069067",
        "mean_anomaly": "321.6014253544434",
        "mean_motion": ".6772202533194598",
        "equinox": "J2000",
        "orbit_class": {
            "orbit_class_type": "APO",
            "orbit_class_description": "Near-Earth asteroid orbits which cross the Earth’s orbit similar to that of 1862 Apollo",
            "orbit_class_range": "a (semi-major axis) > 1.0 AU; q (perihelion) < 1.017 AU"
        }
    },
    "is_sentry_object": false
}